#cP2016  5  1  0  0  0.00000000       5 UNDEF FRAME BCT UNDF
## 1895      0.00000000   900.00000000 57509 0.0000000000000
+    5   L01L02L03L04L05  0  0  0  0  0  0  0  0  0  0  0  0
+          0  0  0  0  0  0  0  0  0  0  0  0  0  0  0  0  0
+          0  0  0  0  0  0  0  0  0  0  0  0  0  0  0  0  0
+          0  0  0  0  0  0  0  0  0  0  0  0  0  0  0  0  0
+          0  0  0  0  0  0  0  0  0  0  0  0  0  0  0  0  0
++         5  5  5  5  5  0  0  0  0  0  0  0  0  0  0  0  0
++         0  0  0  0  0  0  0  0  0  0  0  0  0  0  0  0  0
++         0  0  0  0  0  0  0  0  0  0  0  0  0  0  0  0  0
++         0  0  0  0  0  0  0  0  0  0  0  0  0  0  0  0  0
++         0  0  0  0  0  0  0  0  0  0  0  0  0  0  0  0  0
%c L  cc UTC ccc cccc cccc cccc cccc ccccc ccccc ccccc ccccc
%c cc cc ccc ccc cccc cccc cccc cccc ccccc ccccc ccccc ccccc
%f  1.2500000  1.025000000  0.00000000000  0.000000000000000
%f  0.0000000  0.000000000  0.00000000000  0.000000000000000
%i    0    0    0    0      0      0      0      0         0
%i    0    0    0    0      0      0      0      0         0
/* Unique tests in this file: odd strings in data type/ref/ 
/* frame/AC title, BCT orbit type, LEO sat codes, LEO file- 
/* sat system code, UTC time system code. This is the second
/* SP3 mgex test file, and judges unique tests from ...mgex1
*  2016  5  1  0  0  0.00000000
PL01  14648.234709  -3740.886991      7.340688     18.960206  0  0  0   0       
PL02 -14338.233674 -18330.627978   -720.715833    594.344093  0  0  0   0       
PL03  22107.745697 -11778.305645     49.400589    -53.072728  0  0  0   0       
PL04    746.923672  17272.711589    -91.501796   -255.964450  0  0  0   0       
PL05 -15765.832417  -5693.140992     10.103485   -124.558252  0  0  0   0       
*  2016  5  1  0 15  0.00000000
PL01  14648.234709  -3740.886991      7.340688     18.960206  0  0  0   0       
PL02 -14338.233674 -18330.627978   -720.715833    594.344093  0  0  0   0       
PL03  22107.745697 -11778.305645     49.400589    -53.072728  0  0  0   0       
PL04    746.923672  17272.711589    -91.501796   -255.964450  0  0  0   0       
PL05 -15765.832417  -5693.140992     10.103485   -124.558252  0  0  0   0       
*  2016  5  1  0 30  0.00000000
PL01  14648.234709  -3740.886991      7.340688     18.960206  0  0  0   0       
PL02 -14338.233674 -18330.627978   -720.715833    594.344093  0  0  0   0       
PL03  22107.745697 -11778.305645     49.400589    -53.072728  0  0  0   0       
PL04    746.923672  17272.711589    -91.501796   -255.964450  0  0  0   0       
PL05 -15765.832417  -5693.140992     10.103485   -124.558252  0  0  0   0       
*  2016  5  1  0 45  0.00000000
PL01  14648.234709  -3740.886991      7.340688     18.960206  0  0  0   0       
PL02 -14338.233674 -18330.627978   -720.715833    594.344093  0  0  0   0       
PL03  22107.745697 -11778.305645     49.400589    -53.072728  0  0  0   0       
PL04    746.923672  17272.711589    -91.501796   -255.964450  0  0  0   0       
PL05 -15765.832417  -5693.140992     10.103485   -124.558252  0  0  0   0       
*  2016  5  1  1  0  0.00000000
PL01  14648.234709  -3740.886991      7.340688     18.960206  0  0  0   0       
PL02 -14338.233674 -18330.627978   -720.715833    594.344093  0  0  0   0       
PL03  22107.745697 -11778.305645     49.400589    -53.072728  0  0  0   0       
PL04    746.923672  17272.711589    -91.501796   -255.964450  0  0  0   0       
PL05 -15765.832417  -5693.140992     10.103485   -124.558252  0  0  0   0       
EOF
